{
  "type": "FeatureCollection",
  "features": [
    {
      "type": "Feature",
      "id": "lane/7735/in_EB/r1",
      "geometry": {
        "type": "Polygon",
        "coordinates": [
          [
            [
              -111.92653777721749,
              33.41478157358717
            ],
            [
              -111.92661321434605,
              33.41478084595916
            ],
            [
              -111.92668865147459,
              33.41478017430249
            ],
            [
              -111.92676408860314,
              33.41478006235971
            ],
            [
              -111.92683952573168,
              33.414779334731676
            ],
            [
              -111.92683945867644,
              33.41474966989085
            ],
            [
              -111.9267640215479,
              33.41475039751914
            ],
            [
              -111.92668858441935,
              33.414751069176035
            ],
            [
              -111.92661314729081,
              33.41475118111884
            ],
            [
              -111.92653771016226,
              33.414751908747135
            ],
            [
              -111.92653777721749,
              33.41478157358717
            ]
          ]
        ]
      },
      "properties": {
        "section_id": "in_EB",
        "region_id": "r1",
        "model_surface_type": "motor_vehicle_lane",
        "model_existence": "supported",
        "model_use": "left_only",
        "graph_role": "motor_lane_candidate",
        "movement_endpoint_eligible": true
      }
    },
    {
      "type": "Feature",
      "id": "lane/7735/in_EB/r2",
      "geometry": {
        "type": "Polygon",
        "coordinates": [
          [
            [
              -111.92653771016226,
              33.414751908747135
            ],
            [
              -111.92661314729081,
              33.41475118111884
            ],
            [
              -111.92668858441935,
              33.414751069176035
            ],
            [
              -111.9267640215479,
              33.41475039751914
            ],
            [
              -111.92683945867644,
              33.41474966989085
            ],
            [
              -111.92683939162121,
              33.41471552732566
            ],
            [
              -111.92676395449267,
              33.414716254954236
            ],
            [
              -111.92668851736411,
              33.41471692661138
            ],
            [
              -111.92661308023557,
              33.414717598268524
            ],
            [
              -111.92653764310704,
              33.41471832589708
            ],
            [
              -111.92653771016226,
              33.414751908747135
            ]
          ]
        ]
      },
      "properties": {
        "section_id": "in_EB",
        "region_id": "r2",
        "model_surface_type": "shared_rail_motor_lane",
        "model_existence": "supported",
        "model_use": "unknown",
        "graph_role": "motor_lane_candidate",
        "movement_endpoint_eligible": true
      }
    },
    {
      "type": "Feature",
      "id": "lane/7735/in_EB/r3",
      "geometry": {
        "type": "Polygon",
        "coordinates": [
          [
            [
              -111.92653764310704,
              33.41471832589708
            ],
            [
              -111.92661308023557,
              33.414717598268524
            ],
            [
              -111.92668851736411,
              33.41471692661138
            ],
            [
              -111.92676395449267,
              33.414716254954236
            ],
            [
              -111.92683939162121,
              33.41471552732566
            ],
            [
              -111.92683932456599,
              33.41468754160647
            ],
            [
              -111.92676388743745,
              33.4146882692353
            ],
            [
              -111.9266884503089,
              33.41468950060712
            ],
            [
              -111.92661301318037,
              33.41469017226447
            ],
            [
              -111.9265375760518,
              33.414690899893245
            ],
            [
              -111.92653764310704,
              33.41471832589708
            ]
          ]
        ]
      },
      "properties": {
        "section_id": "in_EB",
        "region_id": "r3",
        "model_surface_type": "motor_vehicle_lane",
        "model_existence": "supported",
        "model_use": "unknown",
        "graph_role": "motor_lane_candidate",
        "movement_endpoint_eligible": true
      }
    },
    {
      "type": "Feature",
      "id": "lane/7735/in_EB/r5",
      "geometry": {
        "type": "Polygon",
        "coordinates": [
          [
            [
              -111.92653750899659,
              33.4146780264599
            ],
            [
              -111.92661294612513,
              33.414677298831
            ],
            [
              -111.92668838325368,
              33.4146771868881
            ],
            [
              -111.92676382038222,
              33.414676515230646
            ],
            [
              -111.92683925751076,
              33.414675787601745
            ],
            [
              -111.92683925751076,
              33.414655637875605
            ],
            [
              -111.92676382038222,
              33.41465580579001
            ],
            [
              -111.92668838325368,
              33.414655358018265
            ],
            [
              -111.92661294612513,
              33.41465491024652
            ],
            [
              -111.92653750899659,
              33.414654518446255
            ],
            [
              -111.92653750899659,
              33.4146780264599
            ]
          ]
        ]
      },
      "properties": {
        "section_id": "in_EB",
        "region_id": "r5",
        "model_surface_type": "motor_vehicle_lane",
        "model_existence": "supported",
        "model_use": "unknown",
        "graph_role": "motor_lane_candidate",
        "movement_endpoint_eligible": true
      }
    },
    {
      "type": "Feature",
      "id": "lane/7735/in_NB/r1",
      "geometry": {
        "type": "Polygon",
        "coordinates": [
          [
            [
              -111.92633077773678,
              33.41455500111793
            ],
            [
              -111.92632997307408,
              33.4144920331207
            ],
            [
              -111.92632983896361,
              33.414429065077805
            ],
            [
              -111.92632963779792,
              33.414366096989255
            ],
            [
              -111.92632950368748,
              33.41430312885506
            ],
            [
              -111.92629530552254,
              33.414303184826764
            ],
            [
              -111.926295439633,
              33.41436615296091
            ],
            [
              -111.92629631135092,
              33.41442912104943
            ],
            [
              -111.92629644546138,
              33.414492089092256
            ],
            [
              -111.92629725012408,
              33.41455505708946
            ],
            [
              -111.92633077773678,
              33.41455500111793
            ]
          ]
        ]
      },
      "properties": {
        "section_id": "in_NB",
        "region_id": "r1",
        "model_surface_type": "motor_vehicle_lane",
        "model_existence": "supported",
        "model_use": "unknown",
        "graph_role": "motor_lane_candidate",
        "movement_endpoint_eligible": true
      }
    },
    {
      "type": "Feature",
      "id": "lane/7735/in_NB/r3",
      "geometry": {
        "type": "Polygon",
        "coordinates": [
          [
            [
              -111.9262637225114,
              33.414555113060985
            ],
            [
              -111.92626358840096,
              33.41449214506384
            ],
            [
              -111.92626412484275,
              33.414429177021034
            ],
            [
              -111.92626459422932,
              33.41436620893256
            ],
            [
              -111.92626446011887,
              33.414303240798446
            ],
            [
              -111.92622825029717,
              33.41430329677015
            ],
            [
              -111.92622838440764,
              33.414366264904224
            ],
            [
              -111.9262285855733,
              33.41442923299264
            ],
            [
              -111.92622871968375,
              33.414492201035415
            ],
            [
              -111.9262288537942,
              33.41455516903252
            ],
            [
              -111.9262637225114,
              33.414555113060985
            ]
          ]
        ]
      },
      "properties": {
        "section_id": "in_NB",
        "region_id": "r3",
        "model_surface_type": "motor_vehicle_lane",
        "model_existence": "supported",
        "model_use": "unknown",
        "graph_role": "motor_lane_candidate",
        "movement_endpoint_eligible": true
      }
    },
    {
      "type": "Feature",
      "id": "lane/7735/in_NB/r4",
      "geometry": {
        "type": "Polygon",
        "coordinates": [
          [
            [
              -111.9262288537942,
              33.41455516903252
            ],
            [
              -111.92622871968375,
              33.414492201035415
            ],
            [
              -111.9262285855733,
              33.41442923299264
            ],
            [
              -111.92622838440764,
              33.414366264904224
            ],
            [
              -111.92622825029717,
              33.41430329677015
            ],
            [
              -111.92619271102772,
              33.41430335274183
            ],
            [
              -111.92619284513816,
              33.41436632087588
            ],
            [
              -111.92619304630385,
              33.41442928896427
            ],
            [
              -111.92619318041432,
              33.414492257007
            ],
            [
              -111.92619331452475,
              33.41455522500407
            ],
            [
              -111.9262288537942,
              33.41455516903252
            ]
          ]
        ]
      },
      "properties": {
        "section_id": "in_NB",
        "region_id": "r4",
        "model_surface_type": "motor_vehicle_lane",
        "model_existence": "supported",
        "model_use": "unknown",
        "graph_role": "motor_lane_candidate",
        "movement_endpoint_eligible": true
      }
    },
    {
      "type": "Feature",
      "id": "lane/7735/in_NB/r5",
      "geometry": {
        "type": "Polygon",
        "coordinates": [
          [
            [
              -111.92619331452475,
              33.41455522500407
            ],
            [
              -111.92619318041432,
              33.414492257007
            ],
            [
              -111.92619304630385,
              33.41442928896427
            ],
            [
              -111.92619284513816,
              33.41436632087588
            ],
            [
              -111.92619271102772,
              33.41430335274183
            ],
            [
              -111.92615046623574,
              33.41430340871354
            ],
            [
              -111.92615060034619,
              33.41436637684753
            ],
            [
              -111.92615147206413,
              33.414429344935876
            ],
            [
              -111.92615227672682,
              33.414492312978574
            ],
            [
              -111.92615308138953,
              33.4145552809756
            ],
            [
              -111.92619331452475,
              33.41455522500407
            ]
          ]
        ]
      },
      "properties": {
        "section_id": "in_NB",
        "region_id": "r5",
        "model_surface_type": "motor_vehicle_lane",
        "model_existence": "supported",
        "model_use": "unknown",
        "graph_role": "motor_lane_candidate",
        "movement_endpoint_eligible": true
      }
    },
    {
      "type": "Feature",
      "id": "lane/7735/in_SB/r1",
      "geometry": {
        "type": "Polygon",
        "coordinates": [
          [
            [
              -111.9262645271741,
              33.41495995421365
            ],
            [
              -111.92626513067113,
              33.41502292187163
            ],
            [
              -111.92626566711292,
              33.41508588948391
            ],
            [
              -111.92626553300248,
              33.41514885705059
            ],
            [
              -111.92626606944427,
              33.41521182457158
            ],
            [
              -111.92629825595246,
              33.41521165665824
            ],
            [
              -111.92629771951066,
              33.415148689137126
            ],
            [
              -111.92629785362111,
              33.41508572157037
            ],
            [
              -111.92629798773156,
              33.415022753957935
            ],
            [
              -111.92629738423454,
              33.41495978629983
            ],
            [
              -111.9262645271741,
              33.41495995421365
            ]
          ]
        ]
      },
      "properties": {
        "section_id": "in_SB",
        "region_id": "r1",
        "model_surface_type": "motor_vehicle_lane",
        "model_existence": "supported",
        "model_use": "left_only",
        "graph_role": "motor_lane_candidate",
        "movement_endpoint_eligible": true
      }
    },
    {
      "type": "Feature",
      "id": "lane/7735/in_SB/r2",
      "geometry": {
        "type": "Polygon",
        "coordinates": [
          [
            [
              -111.92629738423454,
              33.41495978629983
            ],
            [
              -111.92629798773156,
              33.415022753957935
            ],
            [
              -111.92629785362111,
              33.41508572157037
            ],
            [
              -111.92629771951066,
              33.415148689137126
            ],
            [
              -111.92629825595246,
              33.41521165665824
            ],
            [
              -111.92633111301289,
              33.4152114327738
            ],
            [
              -111.92633124712334,
              33.41514846525254
            ],
            [
              -111.92633071068155,
              33.415085497685574
            ],
            [
              -111.92633084479199,
              33.41502253007299
            ],
            [
              -111.92633091184722,
              33.41495956241476
            ],
            [
              -111.92629738423454,
              33.41495978629983
            ]
          ]
        ]
      },
      "properties": {
        "section_id": "in_SB",
        "region_id": "r2",
        "model_surface_type": "motor_vehicle_lane",
        "model_existence": "supported",
        "model_use": "left_only",
        "graph_role": "motor_lane_candidate",
        "movement_endpoint_eligible": true
      }
    },
    {
      "type": "Feature",
      "id": "lane/7735/in_SB/r3",
      "geometry": {
        "type": "Polygon",
        "coordinates": [
          [
            [
              -111.92633091184722,
              33.41495956241476
            ],
            [
              -111.92633084479199,
              33.41502253007299
            ],
            [
              -111.92633071068155,
              33.415085497685574
            ],
            [
              -111.92633124712334,
              33.41514846525254
            ],
            [
              -111.92633111301289,
              33.4152114327738
            ],
            [
              -111.92636799338685,
              33.41521120888937
            ],
            [
              -111.9263681274973,
              33.41514824136792
            ],
            [
              -111.9263675910555,
              33.415085273800834
            ],
            [
              -111.92636765811072,
              33.41502230618807
            ],
            [
              -111.92636712166892,
              33.41495933852966
            ],
            [
              -111.92633091184722,
              33.41495956241476
            ]
          ]
        ]
      },
      "properties": {
        "section_id": "in_SB",
        "region_id": "r3",
        "model_surface_type": "motor_vehicle_lane",
        "model_existence": "supported",
        "model_use": "unknown",
        "graph_role": "motor_lane_candidate",
        "movement_endpoint_eligible": true
      }
    },
    {
      "type": "Feature",
      "id": "lane/7735/in_SB/r4",
      "geometry": {
        "type": "Polygon",
        "coordinates": [
          [
            [
              -111.92636712166892,
              33.41495933852966
            ],
            [
              -111.92636765811072,
              33.41502230618807
            ],
            [
              -111.9263675910555,
              33.415085273800834
            ],
            [
              -111.9263681274973,
              33.41514824136792
            ],
            [
              -111.92636799338685,
              33.41521120888937
            ],
            [
              -111.92640420320855,
              33.41521098500493
            ],
            [
              -111.92640366676673,
              33.41514801748331
            ],
            [
              -111.9264038008772,
              33.41508504991607
            ],
            [
              -111.92640319738017,
              33.41502208230315
            ],
            [
              -111.92640266093836,
              33.41495911464457
            ],
            [
              -111.92636712166892,
              33.41495933852966
            ]
          ]
        ]
      },
      "properties": {
        "section_id": "in_SB",
        "region_id": "r4",
        "model_surface_type": "motor_vehicle_lane",
        "model_existence": "supported",
        "model_use": "unknown",
        "graph_role": "motor_lane_candidate",
        "movement_endpoint_eligible": true
      }
    },
    {
      "type": "Feature",
      "id": "lane/7735/in_SB/r5",
      "geometry": {
        "type": "Polygon",
        "coordinates": [
          [
            [
              -111.92640266093836,
              33.41495911464457
            ],
            [
              -111.92640319738017,
              33.41502208230315
            ],
            [
              -111.9264038008772,
              33.41508504991607
            ],
            [
              -111.92640366676673,
              33.41514801748331
            ],
            [
              -111.92640420320855,
              33.41521098500493
            ],
            [
              -111.92648064616549,
              33.41521053723604
            ],
            [
              -111.92645596984255,
              33.41514768165641
            ],
            [
              -111.92644738677369,
              33.415084770060105
            ],
            [
              -111.9264447716199,
              33.415021858418214
            ],
            [
              -111.92644490573034,
              33.41495889075947
            ],
            [
              -111.92640266093836,
              33.41495911464457
            ]
          ]
        ]
      },
      "properties": {
        "section_id": "in_SB",
        "region_id": "r5",
        "model_surface_type": "motor_vehicle_lane",
        "model_existence": "supported",
        "model_use": "unknown",
        "graph_role": "motor_lane_candidate",
        "movement_endpoint_eligible": true
      }
    },
    {
      "type": "Feature",
      "id": "lane/7735/in_WB/r1",
      "geometry": {
        "type": "Polygon",
        "coordinates": [
          [
            [
              -111.92606014284716,
              33.41475599465966
            ],
            [
              -111.92598470571862,
              33.41475543494562
            ],
            [
              -111.92590926859008,
              33.41475537897421
            ],
            [
              -111.92583383146153,
              33.41475537897421
            ],
            [
              -111.92575839433297,
              33.414755323002815
            ],
            [
              -111.92575772378073,
              33.4147861072694
            ],
            [
              -111.92583316090926,
              33.41478504381308
            ],
            [
              -111.92590866509305,
              33.41478504381308
            ],
            [
              -111.92598410222159,
              33.41478454007062
            ],
            [
              -111.92605953935013,
              33.41478454007062
            ],
            [
              -111.92606014284716,
              33.41475599465966
            ]
          ]
        ]
      },
      "properties": {
        "section_id": "in_WB",
        "region_id": "r1",
        "model_surface_type": "motor_vehicle_lane",
        "model_existence": "supported",
        "model_use": "unknown",
        "graph_role": "motor_lane_candidate",
        "movement_endpoint_eligible": true
      }
    },
    {
      "type": "Feature",
      "id": "lane/7735/in_WB/r2",
      "geometry": {
        "type": "Polygon",
        "coordinates": [
          [
            [
              -111.92605953935013,
              33.41478454007062
            ],
            [
              -111.92598410222159,
              33.41478454007062
            ],
            [
              -111.92590866509305,
              33.41478504381308
            ],
            [
              -111.92583316090926,
              33.41478504381308
            ],
            [
              -111.92575772378073,
              33.4147861072694
            ],
            [
              -111.92575752261506,
              33.41479618211789
            ],
            [
              -111.9258329597436,
              33.41479623808927
            ],
            [
              -111.92590839687215,
              33.414795678375505
            ],
            [
              -111.92598383400069,
              33.41479573434688
            ],
            [
              -111.92605933818446,
              33.41479573434688
            ],
            [
              -111.92605953935013,
              33.41478454007062
            ]
          ]
        ]
      },
      "properties": {
        "section_id": "in_WB",
        "region_id": "r2",
        "model_surface_type": "shared_rail_motor_lane",
        "model_existence": "supported",
        "model_use": "unknown",
        "graph_role": "motor_lane_candidate",
        "movement_endpoint_eligible": true
      }
    },
    {
      "type": "Feature",
      "id": "lane/7735/in_WB/r3",
      "geometry": {
        "type": "Polygon",
        "coordinates": [
          [
            [
              -111.92605933818446,
              33.41479573434688
            ],
            [
              -111.92598383400069,
              33.41479573434688
            ],
            [
              -111.92590839687215,
              33.414795678375505
            ],
            [
              -111.9258329597436,
              33.41479623808927
            ],
            [
              -111.92575752261506,
              33.41479618211789
            ],
            [
              -111.92575725439414,
              33.41480849582004
            ],
            [
              -111.92583269152269,
              33.414807992077705
            ],
            [
              -111.92590812865123,
              33.414807992077705
            ],
            [
              -111.92598356577979,
              33.41480804804908
            ],
            [
              -111.92605906996356,
              33.41480804804908
            ],
            [
              -111.92605933818446,
              33.41479573434688
            ]
          ]
        ]
      },
      "properties": {
        "section_id": "in_WB",
        "region_id": "r3",
        "model_surface_type": "shared_rail_motor_lane",
        "model_existence": "supported",
        "model_use": "unknown",
        "graph_role": "motor_lane_candidate",
        "movement_endpoint_eligible": true
      }
    },
    {
      "type": "Feature",
      "id": "lane/7735/in_WB/r4",
      "geometry": {
        "type": "Polygon",
        "coordinates": [
          [
            [
              -111.92605906996356,
              33.41480804804908
            ],
            [
              -111.92598356577979,
              33.41480804804908
            ],
            [
              -111.92590812865123,
              33.414807992077705
            ],
            [
              -111.92583269152269,
              33.414807992077705
            ],
            [
              -111.92575725439414,
              33.41480849582004
            ],
            [
              -111.92575698617324,
              33.414818570665965
            ],
            [
              -111.92583249035701,
              33.41481806692368
            ],
            [
              -111.92590792748555,
              33.41481806692368
            ],
            [
              -111.92598336461411,
              33.41481868260869
            ],
            [
              -111.92605880174266,
              33.41481868260869
            ],
            [
              -111.92605906996356,
              33.41480804804908
            ]
          ]
        ]
      },
      "properties": {
        "section_id": "in_WB",
        "region_id": "r4",
        "model_surface_type": "shared_rail_motor_lane",
        "model_existence": "supported",
        "model_use": "unknown",
        "graph_role": "motor_lane_candidate",
        "movement_endpoint_eligible": true
      }
    },
    {
      "type": "Feature",
      "id": "lane/7735/in_WB/r5",
      "geometry": {
        "type": "Polygon",
        "coordinates": [
          [
            [
              -111.92605880174266,
              33.41481868260869
            ],
            [
              -111.92598336461411,
              33.41481868260869
            ],
            [
              -111.92590792748555,
              33.41481806692368
            ],
            [
              -111.92583249035701,
              33.41481806692368
            ],
            [
              -111.92575698617324,
              33.414818570665965
            ],
            [
              -111.92575644973145,
              33.414844877202555
            ],
            [
              -111.92583188686,
              33.414844373460454
            ],
            [
              -111.92590732398854,
              33.41484381374698
            ],
            [
              -111.9259827611171,
              33.414844429431774
            ],
            [
              -111.92605819824564,
              33.41484498914526
            ],
            [
              -111.92605880174266,
              33.41481868260869
            ]
          ]
        ]
      },
      "properties": {
        "section_id": "in_WB",
        "region_id": "r5",
        "model_surface_type": "motor_vehicle_lane",
        "model_existence": "supported",
        "model_use": "unknown",
        "graph_role": "motor_lane_candidate",
        "movement_endpoint_eligible": true
      }
    },
    {
      "type": "Feature",
      "id": "lane/7735/in_WB/r7",
      "geometry": {
        "type": "Polygon",
        "coordinates": [
          [
            [
              -111.92605793002473,
              33.414859541693964
            ],
            [
              -111.92598249289618,
              33.414859485722616
            ],
            [
              -111.92590705576764,
              33.414858926009266
            ],
            [
              -111.92583155158387,
              33.41485887003794
            ],
            [
              -111.92575611445533,
              33.41485887003794
            ],
            [
              -111.92575571212397,
              33.414877900290406
            ],
            [
              -111.92583114925252,
              33.414879019716885
            ],
            [
              -111.92590651932582,
              33.414880754827934
            ],
            [
              -111.9259819564544,
              33.41488243396758
            ],
            [
              -111.92605739358292,
              33.41488472879175
            ],
            [
              -111.92605793002473,
              33.414859541693964
            ]
          ]
        ]
      },
      "properties": {
        "section_id": "in_WB",
        "region_id": "r7",
        "model_surface_type": "motor_vehicle_lane",
        "model_existence": "supported",
        "model_use": "unknown",
        "graph_role": "motor_lane_candidate",
        "movement_endpoint_eligible": true
      }
    },
    {
      "type": "Feature",
      "id": "lane/7735/out_EB/r1",
      "geometry": {
        "type": "Polygon",
        "coordinates": [
          [
            [
              -111.92576992783174,
              33.414754819260175
            ],
            [
              -111.9258453649603,
              33.41475549091702
            ],
            [
              -111.92592080208884,
              33.41475554688842
            ],
            [
              -111.92599623921738,
              33.41475616257386
            ],
            [
              -111.92607167634593,
              33.41475621854526
            ],
            [
              -111.92607181045636,
              33.414745583978025
            ],
            [
              -111.92599637332782,
              33.4147455280066
            ],
            [
              -111.92592093619928,
              33.41474547203519
            ],
            [
              -111.92584549907073,
              33.414745416063795
            ],
            [
              -111.9257700619422,
              33.414744744406875
            ],
            [
              -111.92576992783174,
              33.414754819260175
            ]
          ]
        ]
      },
      "properties": {
        "section_id": "out_EB",
        "region_id": "r1",
        "model_surface_type": "shared_rail_motor_lane",
        "model_existence": "supported",
        "model_use": "unknown",
        "graph_role": "motor_lane_candidate",
        "movement_endpoint_eligible": true
      }
    },
    {
      "type": "Feature",
      "id": "lane/7735/out_EB/r2",
      "geometry": {
        "type": "Polygon",
        "coordinates": [
          [
            [
              -111.9257700619422,
              33.414744744406875
            ],
            [
              -111.92584549907073,
              33.414745416063795
            ],
            [
              -111.92592093619928,
              33.41474547203519
            ],
            [
              -111.92599637332782,
              33.4147455280066
            ],
            [
              -111.92607181045636,
              33.414745583978025
            ],
            [
              -111.92607194456683,
              33.414731591124394
            ],
            [
              -111.9259965074383,
              33.41473153515297
            ],
            [
              -111.92592107030973,
              33.41473147918157
            ],
            [
              -111.9258456331812,
              33.41473142321014
            ],
            [
              -111.92577019605265,
              33.41473080752452
            ],
            [
              -111.9257700619422,
              33.414744744406875
            ]
          ]
        ]
      },
      "properties": {
        "section_id": "out_EB",
        "region_id": "r2",
        "model_surface_type": "shared_rail_motor_lane",
        "model_existence": "supported",
        "model_use": "unknown",
        "graph_role": "motor_lane_candidate",
        "movement_endpoint_eligible": true
      }
    },
    {
      "type": "Feature",
      "id": "lane/7735/out_EB/r3",
      "geometry": {
        "type": "Polygon",
        "coordinates": [
          [
            [
              -111.92577019605265,
              33.41473080752452
            ],
            [
              -111.9258456331812,
              33.41473142321014
            ],
            [
              -111.92592107030973,
              33.41473147918157
            ],
            [
              -111.9259965074383,
              33.41473153515297
            ],
            [
              -111.92607194456683,
              33.414731591124394
            ],
            [
              -111.92607207867728,
              33.41472039683989
            ],
            [
              -111.92599664154874,
              33.41472034086846
            ],
            [
              -111.92592120442019,
              33.41472028489704
            ],
            [
              -111.92584576729165,
              33.41472022892561
            ],
            [
              -111.92577033016309,
              33.41471961323992
            ],
            [
              -111.92577019605265,
              33.41473080752452
            ]
          ]
        ]
      },
      "properties": {
        "section_id": "out_EB",
        "region_id": "r3",
        "model_surface_type": "shared_rail_motor_lane",
        "model_existence": "supported",
        "model_use": "unknown",
        "graph_role": "motor_lane_candidate",
        "movement_endpoint_eligible": true
      }
    },
    {
      "type": "Feature",
      "id": "lane/7735/out_EB/r4",
      "geometry": {
        "type": "Polygon",
        "coordinates": [
          [
            [
              -111.92577033016309,
              33.41471961323992
            ],
            [
              -111.92584576729165,
              33.41472022892561
            ],
            [
              -111.92592120442019,
              33.41472028489704
            ],
            [
              -111.92599664154874,
              33.41472034086846
            ],
            [
              -111.92607207867728,
              33.41472039683989
            ],
            [
              -111.9260724139534,
              33.41469464998001
            ],
            [
              -111.92599697682486,
              33.41469459400855
            ],
            [
              -111.92592153969632,
              33.414694538037125
            ],
            [
              -111.92584610256777,
              33.41469448206568
            ],
            [
              -111.92577066543923,
              33.4146938663798
            ],
            [
              -111.92577033016309,
              33.41471961323992
            ]
          ]
        ]
      },
      "properties": {
        "section_id": "out_EB",
        "region_id": "r4",
        "model_surface_type": "motor_vehicle_lane",
        "model_existence": "supported",
        "model_use": "unknown",
        "graph_role": "motor_lane_candidate",
        "movement_endpoint_eligible": true
      }
    },
    {
      "type": "Feature",
      "id": "lane/7735/out_NB/r1",
      "geometry": {
        "type": "Polygon",
        "coordinates": [
          [
            [
              -111.92626519772635,
              33.415197719850845
            ],
            [
              -111.92626472833977,
              33.41513475231963
            ],
            [
              -111.92626499656068,
              33.41507178474274
            ],
            [
              -111.92626459422932,
              33.41500881712021
            ],
            [
              -111.92626412484275,
              33.41494579348073
            ],
            [
              -111.92623059723007,
              33.4149464651361
            ],
            [
              -111.92623039606438,
              33.41500948877509
            ],
            [
              -111.92623012784348,
              33.41507245639714
            ],
            [
              -111.9262299266778,
              33.41513542397352
            ],
            [
              -111.92622898790465,
              33.41519844747537
            ],
            [
              -111.92626519772635,
              33.415197719850845
            ]
          ]
        ]
      },
      "properties": {
        "section_id": "out_NB",
        "region_id": "r1",
        "model_surface_type": "motor_vehicle_lane",
        "model_existence": "supported",
        "model_use": "unknown",
        "graph_role": "motor_lane_candidate",
        "movement_endpoint_eligible": true
      }
    },
    {
      "type": "Feature",
      "id": "lane/7735/out_NB/r2",
      "geometry": {
        "type": "Polygon",
        "coordinates": [
          [
            [
              -111.92622898790465,
              33.41519844747537
            ],
            [
              -111.9262299266778,
              33.41513542397352
            ],
            [
              -111.92623012784348,
              33.41507245639714
            ],
            [
              -111.92623039606438,
              33.41500948877509
            ],
            [
              -111.92623059723007,
              33.4149464651361
            ],
            [
              -111.92619639906512,
              33.41494713679146
            ],
            [
              -111.92619619789944,
              33.41501016042995
            ],
            [
              -111.92619525912627,
              33.41507312805152
            ],
            [
              -111.92619505796061,
              33.41513615159858
            ],
            [
              -111.92619411918746,
              33.4151991191288
            ],
            [
              -111.92622898790465,
              33.41519844747537
            ]
          ]
        ]
      },
      "properties": {
        "section_id": "out_NB",
        "region_id": "r2",
        "model_surface_type": "motor_vehicle_lane",
        "model_existence": "supported",
        "model_use": "unknown",
        "graph_role": "motor_lane_candidate",
        "movement_endpoint_eligible": true
      }
    },
    {
      "type": "Feature",
      "id": "lane/7735/out_NB/r3",
      "geometry": {
        "type": "Polygon",
        "coordinates": [
          [
            [
              -111.92619411918746,
              33.4151991191288
            ],
            [
              -111.92619505796061,
              33.41513615159858
            ],
            [
              -111.92619525912627,
              33.41507312805152
            ],
            [
              -111.92619619789944,
              33.41501016042995
            ],
            [
              -111.92619639906512,
              33.41494713679146
            ],
            [
              -111.92615489188061,
              33.41494797636065
            ],
            [
              -111.92615462365971,
              33.4150109440273
            ],
            [
              -111.9261543554388,
              33.415073967619506
            ],
            [
              -111.92615482482539,
              33.41513693519479
            ],
            [
              -111.92615522715674,
              33.415199902724424
            ],
            [
              -111.92619411918746,
              33.4151991191288
            ]
          ]
        ]
      },
      "properties": {
        "section_id": "out_NB",
        "region_id": "r3",
        "model_surface_type": "motor_vehicle_lane",
        "model_existence": "supported",
        "model_use": "unknown",
        "graph_role": "motor_lane_candidate",
        "movement_endpoint_eligible": true
      }
    },
    {
      "type": "Feature",
      "id": "lane/7735/out_SB/r1",
      "geometry": {
        "type": "Polygon",
        "coordinates": [
          [
            [
              -111.92632802847253,
              33.414331450528174
            ],
            [
              -111.92632816258296,
              33.41439441864186
            ],
            [
              -111.92632829669343,
              33.41445738670985
            ],
            [
              -111.92632910135613,
              33.41452035473222
            ],
            [
              -111.92633057657109,
              33.414583322708914
            ],
            [
              -111.92636477473603,
              33.41458326673741
            ],
            [
              -111.9263659817301,
              33.414520298760664
            ],
            [
              -111.92636584761964,
              33.41445733073827
            ],
            [
              -111.92636504295693,
              33.41439436267021
            ],
            [
              -111.92636490884648,
              33.41433139455652
            ],
            [
              -111.92632802847253,
              33.414331450528174
            ]
          ]
        ]
      },
      "properties": {
        "section_id": "out_SB",
        "region_id": "r1",
        "model_surface_type": "motor_vehicle_lane",
        "model_existence": "supported",
        "model_use": "unknown",
        "graph_role": "motor_lane_candidate",
        "movement_endpoint_eligible": true
      }
    },
    {
      "type": "Feature",
      "id": "lane/7735/out_SB/r2",
      "geometry": {
        "type": "Polygon",
        "coordinates": [
          [
            [
              -111.92636490884648,
              33.41433139455652
            ],
            [
              -111.92636504295693,
              33.41439436267021
            ],
            [
              -111.92636584761964,
              33.41445733073827
            ],
            [
              -111.9263659817301,
              33.414520298760664
            ],
            [
              -111.92636477473603,
              33.41458326673741
            ],
            [
              -111.92640098455773,
              33.41458321076588
            ],
            [
              -111.92640152099953,
              33.41452024278911
            ],
            [
              -111.92640205744134,
              33.41445727476667
            ],
            [
              -111.92640326443538,
              33.414394306698576
            ],
            [
              -111.92640313032494,
              33.414331338584816
            ],
            [
              -111.92636490884648,
              33.41433139455652
            ]
          ]
        ]
      },
      "properties": {
        "section_id": "out_SB",
        "region_id": "r2",
        "model_surface_type": "motor_vehicle_lane",
        "model_existence": "supported",
        "model_use": "unknown",
        "graph_role": "motor_lane_candidate",
        "movement_endpoint_eligible": true
      }
    },
    {
      "type": "Feature",
      "id": "lane/7735/out_SB/r3",
      "geometry": {
        "type": "Polygon",
        "coordinates": [
          [
            [
              -111.92640313032494,
              33.414331338584816
            ],
            [
              -111.92640326443538,
              33.414394306698576
            ],
            [
              -111.92640205744134,
              33.41445727476667
            ],
            [
              -111.92640152099953,
              33.41452024278911
            ],
            [
              -111.92640098455773,
              33.41458321076588
            ],
            [
              -111.92644524100648,
              33.41458315479438
            ],
            [
              -111.9264410835825,
              33.414520186817555
            ],
            [
              -111.92644296112881,
              33.414457218795064
            ],
            [
              -111.92644282701838,
              33.41439425072694
            ],
            [
              -111.92643934014664,
              33.414331282613155
            ],
            [
              -111.92640313032494,
              33.414331338584816
            ]
          ]
        ]
      },
      "properties": {
        "section_id": "out_SB",
        "region_id": "r3",
        "model_surface_type": "motor_vehicle_lane",
        "model_existence": "supported",
        "model_use": "unknown",
        "graph_role": "motor_lane_candidate",
        "movement_endpoint_eligible": true
      }
    },
    {
      "type": "Feature",
      "id": "lane/7735/out_WB/r1",
      "geometry": {
        "type": "Polygon",
        "coordinates": [
          [
            [
              -111.92682577941046,
              33.41480306659704
            ],
            [
              -111.92675034228192,
              33.41480385019625
            ],
            [
              -111.92667490515338,
              33.41480407408176
            ],
            [
              -111.92659946802483,
              33.41480485768097
            ],
            [
              -111.92652396384106,
              33.414805641280154
            ],
            [
              -111.92652436617242,
              33.41481627584003
            ],
            [
              -111.92659980330096,
              33.414815492240955
            ],
            [
              -111.9266752404295,
              33.41481470864184
            ],
            [
              -111.92675074461327,
              33.41481448475636
            ],
            [
              -111.92682618174182,
              33.41481370115726
            ],
            [
              -111.92682577941046,
              33.41480306659704
            ]
          ]
        ]
      },
      "properties": {
        "section_id": "out_WB",
        "region_id": "r1",
        "model_surface_type": "shared_rail_motor_lane",
        "model_existence": "supported",
        "model_use": "unknown",
        "graph_role": "motor_lane_candidate",
        "movement_endpoint_eligible": true
      }
    },
    {
      "type": "Feature",
      "id": "lane/7735/out_WB/r2",
      "geometry": {
        "type": "Polygon",
        "coordinates": [
          [
            [
              -111.92682618174182,
              33.41481370115726
            ],
            [
              -111.92675074461327,
              33.41481448475636
            ],
            [
              -111.9266752404295,
              33.41481470864184
            ],
            [
              -111.92659980330096,
              33.414815492240955
            ],
            [
              -111.92652436617242,
              33.41481627584003
            ],
            [
              -111.9265253720008,
              33.414843645832946
            ],
            [
              -111.92660080912934,
              33.41484286223407
            ],
            [
              -111.92667624625788,
              33.414842134606566
            ],
            [
              -111.92675168338643,
              33.41484135100768
            ],
            [
              -111.92682712051497,
              33.4148405674088
            ],
            [
              -111.92682618174182,
              33.41481370115726
            ]
          ]
        ]
      },
      "properties": {
        "section_id": "out_WB",
        "region_id": "r2",
        "model_surface_type": "motor_vehicle_lane",
        "model_existence": "supported",
        "model_use": "unknown",
        "graph_role": "motor_lane_candidate",
        "movement_endpoint_eligible": true
      }
    }
  ]
}