{
  "type": "FeatureCollection",
  "features": [
    {
      "type": "Feature",
      "id": "lane/7735/out_EB/r6",
      "geometry": {
        "type": "Polygon",
        "coordinates": [
          [
            [
              -111.92577079954968,
              33.41467875408878
            ],
            [
              -111.92584623667821,
              33.41467936977478
            ],
            [
              -111.92592167380676,
              33.414679425746236
            ],
            [
              -111.92599711093531,
              33.41467948171769
            ],
            [
              -111.92607254806386,
              33.41467953768914
            ],
            [
              -111.92607281628476,
              33.414658828249216
            ],
            [
              -111.92599737915621,
              33.41465933199241
            ],
            [
              -111.92592194202767,
              33.41465927602096
            ],
            [
              -111.92584650489913,
              33.41465866033484
            ],
            [
              -111.92577106777058,
              33.41465804464871
            ],
            [
              -111.92577079954968,
              33.41467875408878
            ]
          ]
        ]
      },
      "properties": {
        "section_id": "out_EB",
        "region_id": "r6",
        "model_surface_type": "shoulder_or_parking",
        "model_existence": "rejected",
        "model_use": "unknown",
        "graph_role": "rejected_region",
        "movement_endpoint_eligible": false
      }
    },
    {
      "type": "Feature",
      "id": "lane/7735/out_WB/r4",
      "geometry": {
        "type": "Polygon",
        "coordinates": [
          [
            [
              -111.92682758990155,
              33.41485288110467
            ],
            [
              -111.926752152773,
              33.41485366470342
            ],
            [
              -111.92667671564446,
              33.4148544483022
            ],
            [
              -111.92660127851592,
              33.4148551759296
            ],
            [
              -111.92652584138737,
              33.41485595952835
            ],
            [
              -111.92652657899485,
              33.41487722863451
            ],
            [
              -111.9266020161234,
              33.41487700474921
            ],
            [
              -111.92667752030717,
              33.414876780863906
            ],
            [
              -111.92675295743571,
              33.41487655697861
            ],
            [
              -111.92682846161948,
              33.41487638906464
            ],
            [
              -111.92682758990155,
              33.41485288110467
            ]
          ]
        ]
      },
      "properties": {
        "section_id": "out_WB",
        "region_id": "r4",
        "model_surface_type": "shoulder_or_parking",
        "model_existence": "rejected",
        "model_use": "unknown",
        "graph_role": "rejected_region",
        "movement_endpoint_eligible": false
      }
    }
  ]
}